ONEWEB-0550             
1 56052U 23043G   26026.67604108  .00000027  00000+0  33740-4 0  9997
2 56052  87.9199 272.2107 0001647  76.4165 283.7153 13.21824878139535
ONEWEB-0551             
1 56053U 23043H   26027.22101107  .00000016  00000+0  93848-5 0  9995
2 56053  87.8991 287.3729 0001309  84.6660 275.4620 13.15549482137867
ONEWEB-0552             
1 56054U 23043J   26027.04958919 -.00000080  00000+0 -22550-3 0  9990
2 56054  87.9199 272.1446 0001325  73.2070 286.9209 13.21825958139587
ONEWEB-0553             
1 56055U 23043K   26027.13156419  .00000010  00000+0 -79466-5 0  9998
2 56055  87.9014 256.8567 0001865  84.2669 275.8674 13.16593638140410
ONEWEB-0554             
1 56056U 23043L   26027.11888921  .00000024  00000+0  29007-4 0  9996
2 56056  87.9009 256.8701 0001625  72.8049 287.3260 13.16593283140396
ONEWEB-0555             
1 56057U 23043M   26027.15690399  .00000083  00000+0  18388-3 0  9995
2 56057  87.9012 256.8469 0002028  88.1716 271.9647 13.16593388140407
ONEWEB-0557             
1 56058U 23043N   26027.17115398  .00000087  00000+0  19470-3 0  9996
2 56058  87.9013 256.8555 0002663  65.9268 294.2141 13.16593766140402
ONEWEB-0558             
1 56059U 23043P   26027.11870546  .00000003  00000+0 -24697-4 0  9991
2 56059  87.9196 272.1235 0001177  95.8674 264.2594 13.21826955139607
ONEWEB-0559             
1 56060U 23043Q   26027.10717789  .00000103  00000+0  21839-3 0  9995
2 56060  87.9199 272.1196 0001285  77.5537 282.5741 13.21825325139611
ONEWEB-0566             
1 56061U 23043R   26027.10058890  .00000029  00000+0  39010-4 0  9995
2 56061  87.9204 272.1199 0001228  84.3160 275.8114 13.21826572139598
ONEWEB-0568             
1 56062U 23043S   26027.11257005 -.00000054  00000+0 -17542-3 0  9991
2 56062  87.9015 256.8566 0001803  87.0999 273.0338 13.16593980140414
ONEWEB-0574             
1 56063U 23043T   26027.16972101  .00000020  00000+0  18094-4 0  9993
2 56063  87.9211 272.0943 0001673  74.8271 285.3048 13.21827377139647
ONEWEB-0575             
1 56064U 23043U   26027.10623381  .00000013  00000+0  87781-6 0  9994
2 56064  87.9014 256.8566 0001902  75.3999 284.7343 13.16593441140401
ONEWEB-0576             
1 56065U 23043V   26027.16323179  .00000107  00000+0  24723-3 0  9991
2 56065  87.9018 256.8478 0001686  77.9476 282.1844 13.16593490140407
ONEWEB-0577             
1 56066U 23043W   26027.16956490  .00000104  00000+0  23748-3 0  9993
2 56066  87.9016 256.8457 0002014  63.8103 296.3235 13.16593602140439
ONEWEB-0578             
1 56067U 23043X   26027.23223388 -.00000135  00000+0 -35882-3 0  9993
2 56067  87.9224 272.0872 0001885 101.4998 258.6348 13.21827675139618
ONEWEB-0579             
1 56068U 23043Y   26027.22237427  .00000075  00000+0  14955-3 0  9991
2 56068  87.9203 272.0828 0001306  73.6893 286.4384 13.21826868139622
