[{"OBJECT_NAME":"ONEWEB-0550","OBJECT_ID":"2023-043G","EPOCH":"2026-01-26T16:13:29.949312","MEAN_MOTION":13.21824878,"ECCENTRICITY":0.00016477,"INCLINATION":87.9199,"RA_OF_ASC_NODE":272.2107,"ARG_OF_PERICENTER":76.4165,"MEAN_ANOMALY":283.7153,"EPHEMERIS_TYPE":0,"CLASSIFICATION_TYPE":"U","NORAD_CAT_ID":56052,"ELEMENT_SET_NO":999,"REV_AT_EPOCH":13953,"BSTAR":3.3740229e-5,"MEAN_MOTION_DOT":2.7e-7,"MEAN_MOTION_DDOT":0},{"OBJECT_NAME":"ONEWEB-0551","OBJECT_ID":"2023-043H","EPOCH":"2026-01-27T05:18:15.356448","MEAN_MOTION":13.15549482,"ECCENTRICITY":0.00013091,"INCLINATION":87.8991,"RA_OF_ASC_NODE":287.3729,"ARG_OF_PERICENTER":84.666,"MEAN_ANOMALY":275.462,"EPHEMERIS_TYPE":0,"CLASSIFICATION_TYPE":"U","NORAD_CAT_ID":56053,"ELEMENT_SET_NO":999,"REV_AT_EPOCH":13786,"BSTAR":9.384793e-6,"MEAN_MOTION_DOT":1.6e-7,"MEAN_MOTION_DDOT":0},{"OBJECT_NAME":"ONEWEB-0552","OBJECT_ID":"2023-043J","EPOCH":"2026-01-27T01:11:24.506016","MEAN_MOTION":13.21825958,"ECCENTRICITY":0.00013252,"INCLINATION":87.9199,"RA_OF_ASC_NODE":272.1446,"ARG_OF_PERICENTER":73.207,"MEAN_ANOMALY":286.9209,"EPHEMERIS_TYPE":0,"CLASSIFICATION_TYPE":"U","NORAD_CAT_ID":56054,"ELEMENT_SET_NO":999,"REV_AT_EPOCH":13958,"BSTAR":-0.00022549794,"MEAN_MOTION_DOT":-8.0e-7,"MEAN_MOTION_DDOT":0},{"OBJECT_NAME":"ONEWEB-0553","OBJECT_ID":"2023-043K","EPOCH":"2026-01-27T03:09:27.146016","MEAN_MOTION":13.16593638,"ECCENTRICITY":0.00018658,"INCLINATION":87.9014,"RA_OF_ASC_NODE":256.8567,"ARG_OF_PERICENTER":84.2669,"MEAN_ANOMALY":275.8674,"EPHEMERIS_TYPE":0,"CLASSIFICATION_TYPE":"U","NORAD_CAT_ID":56055,"ELEMENT_SET_NO":999,"REV_AT_EPOCH":14041,"BSTAR":-7.946638e-6,"MEAN_MOTION_DOT":1.0e-7,"MEAN_MOTION_DDOT":0},{"OBJECT_NAME":"ONEWEB-0554","OBJECT_ID":"2023-043L","EPOCH":"2026-01-27T02:51:12.027744","MEAN_MOTION":13.16593283,"ECCENTRICITY":0.00016254,"INCLINATION":87.9009,"RA_OF_ASC_NODE":256.8701,"ARG_OF_PERICENTER":72.8049,"MEAN_ANOMALY":287.326,"EPHEMERIS_TYPE":0,"CLASSIFICATION_TYPE":"U","NORAD_CAT_ID":56056,"ELEMENT_SET_NO":999,"REV_AT_EPOCH":14039,"BSTAR":2.9006846e-5,"MEAN_MOTION_DOT":2.4e-7,"MEAN_MOTION_DDOT":0},{"OBJECT_NAME":"ONEWEB-0555","OBJECT_ID":"2023-043M","EPOCH":"2026-01-27T03:45:56.504736","MEAN_MOTION":13.16593388,"ECCENTRICITY":0.00020287,"INCLINATION":87.9012,"RA_OF_ASC_NODE":256.8469,"ARG_OF_PERICENTER":88.1716,"MEAN_ANOMALY":271.9647,"EPHEMERIS_TYPE":0,"CLASSIFICATION_TYPE":"U","NORAD_CAT_ID":56057,"ELEMENT_SET_NO":999,"REV_AT_EPOCH":14040,"BSTAR":0.00018387982,"MEAN_MOTION_DOT":8.3e-7,"MEAN_MOTION_DDOT":0},{"OBJECT_NAME":"ONEWEB-0557","OBJECT_ID":"2023-043N","EPOCH":"2026-01-27T04:06:27.703872","MEAN_MOTION":13.16593766,"ECCENTRICITY":0.00026634,"INCLINATION":87.9013,"RA_OF_ASC_NODE":256.8555,"ARG_OF_PERICENTER":65.9268,"MEAN_ANOMALY":294.2141,"EPHEMERIS_TYPE":0,"CLASSIFICATION_TYPE":"U","NORAD_CAT_ID":56058,"ELEMENT_SET_NO":999,"REV_AT_EPOCH":14040,"BSTAR":0.00019470013,"MEAN_MOTION_DOT":8.7e-7,"MEAN_MOTION_DDOT":0},{"OBJECT_NAME":"ONEWEB-0558","OBJECT_ID":"2023-043P","EPOCH":"2026-01-27T02:50:56.151744","MEAN_MOTION":13.21826955,"ECCENTRICITY":0.00011779,"INCLINATION":87.9196,"RA_OF_ASC_NODE":272.1235,"ARG_OF_PERICENTER":95.8674,"MEAN_ANOMALY":264.2594,"EPHEMERIS_TYPE":0,"CLASSIFICATION_TYPE":"U","NORAD_CAT_ID":56059,"ELEMENT_SET_NO":999,"REV_AT_EPOCH":13960,"BSTAR":-2.4696547e-5,"MEAN_MOTION_DOT":3.0e-8,"MEAN_MOTION_DDOT":0},{"OBJECT_NAME":"ONEWEB-0559","OBJECT_ID":"2023-043Q","EPOCH":"2026-01-27T02:34:20.169696","MEAN_MOTION":13.21825325,"ECCENTRICITY":0.00012859,"INCLINATION":87.9199,"RA_OF_ASC_NODE":272.1196,"ARG_OF_PERICENTER":77.5537,"MEAN_ANOMALY":282.5741,"EPHEMERIS_TYPE":0,"CLASSIFICATION_TYPE":"U","NORAD_CAT_ID":56060,"ELEMENT_SET_NO":999,"REV_AT_EPOCH":13961,"BSTAR":0.00021838516,"MEAN_MOTION_DOT":1.03e-6,"MEAN_MOTION_DDOT":0},{"OBJECT_NAME":"ONEWEB-0566","OBJECT_ID":"2023-043R","EPOCH":"2026-01-27T02:24:50.880960","MEAN_MOTION":13.21826572,"ECCENTRICITY":0.00012286,"INCLINATION":87.9204,"RA_OF_ASC_NODE":272.1199,"ARG_OF_PERICENTER":84.316,"MEAN_ANOMALY":275.8114,"EPHEMERIS_TYPE":0,"CLASSIFICATION_TYPE":"U","NORAD_CAT_ID":56061,"ELEMENT_SET_NO":999,"REV_AT_EPOCH":13959,"BSTAR":3.9010448e-5,"MEAN_MOTION_DOT":2.9e-7,"MEAN_MOTION_DDOT":0},{"OBJECT_NAME":"ONEWEB-0568","OBJECT_ID":"2023-043S","EPOCH":"2026-01-27T02:42:06.052320","MEAN_MOTION":13.1659398,"ECCENTRICITY":0.00018039,"INCLINATION":87.9015,"RA_OF_ASC_NODE":256.8566,"ARG_OF_PERICENTER":87.0999,"MEAN_ANOMALY":273.0338,"EPHEMERIS_TYPE":0,"CLASSIFICATION_TYPE":"U","NORAD_CAT_ID":56062,"ELEMENT_SET_NO":999,"REV_AT_EPOCH":14041,"BSTAR":-0.00017542081,"MEAN_MOTION_DOT":-5.4e-7,"MEAN_MOTION_DDOT":0},{"OBJECT_NAME":"ONEWEB-0574","OBJECT_ID":"2023-043T","EPOCH":"2026-01-27T04:04:23.895264","MEAN_MOTION":13.21827377,"ECCENTRICITY":0.00016731,"INCLINATION":87.9211,"RA_OF_ASC_NODE":272.0943,"ARG_OF_PERICENTER":74.8271,"MEAN_ANOMALY":285.3048,"EPHEMERIS_TYPE":0,"CLASSIFICATION_TYPE":"U","NORAD_CAT_ID":56063,"ELEMENT_SET_NO":999,"REV_AT_EPOCH":13964,"BSTAR":1.8093756e-5,"MEAN_MOTION_DOT":2.0e-7,"MEAN_MOTION_DDOT":0},{"OBJECT_NAME":"ONEWEB-0575","OBJECT_ID":"2023-043U","EPOCH":"2026-01-27T02:32:58.601184","MEAN_MOTION":13.16593441,"ECCENTRICITY":0.0001902,"INCLINATION":87.9014,"RA_OF_ASC_NODE":256.8566,"ARG_OF_PERICENTER":75.3999,"MEAN_ANOMALY":284.7343,"EPHEMERIS_TYPE":0,"CLASSIFICATION_TYPE":"U","NORAD_CAT_ID":56064,"ELEMENT_SET_NO":999,"REV_AT_EPOCH":14040,"BSTAR":8.77808e-7,"MEAN_MOTION_DOT":1.3e-7,"MEAN_MOTION_DDOT":0},{"OBJECT_NAME":"ONEWEB-0576","OBJECT_ID":"2023-043V","EPOCH":"2026-01-27T03:55:03.226656","MEAN_MOTION":13.1659349,"ECCENTRICITY":0.00016867,"INCLINATION":87.9018,"RA_OF_ASC_NODE":256.8478,"ARG_OF_PERICENTER":77.9476,"MEAN_ANOMALY":282.1844,"EPHEMERIS_TYPE":0,"CLASSIFICATION_TYPE":"U","NORAD_CAT_ID":56065,"ELEMENT_SET_NO":999,"REV_AT_EPOCH":14040,"BSTAR":0.00024723153,"MEAN_MOTION_DOT":1.07e-6,"MEAN_MOTION_DDOT":0},{"OBJECT_NAME":"ONEWEB-0577","OBJECT_ID":"2023-043W","EPOCH":"2026-01-27T04:04:10.407360","MEAN_MOTION":13.16593602,"ECCENTRICITY":0.00020146,"INCLINATION":87.9016,"RA_OF_ASC_NODE":256.8457,"ARG_OF_PERICENTER":63.8103,"MEAN_ANOMALY":296.3235,"EPHEMERIS_TYPE":0,"CLASSIFICATION_TYPE":"U","NORAD_CAT_ID":56066,"ELEMENT_SET_NO":999,"REV_AT_EPOCH":14043,"BSTAR":0.00023748052,"MEAN_MOTION_DOT":1.04e-6,"MEAN_MOTION_DDOT":0},{"OBJECT_NAME":"ONEWEB-0578","OBJECT_ID":"2023-043X","EPOCH":"2026-01-27T05:34:25.007232","MEAN_MOTION":13.21827675,"ECCENTRICITY":0.00018858,"INCLINATION":87.9224,"RA_OF_ASC_NODE":272.0872,"ARG_OF_PERICENTER":101.4998,"MEAN_ANOMALY":258.6348,"EPHEMERIS_TYPE":0,"CLASSIFICATION_TYPE":"U","NORAD_CAT_ID":56067,"ELEMENT_SET_NO":999,"REV_AT_EPOCH":13961,"BSTAR":-0.00035881508,"MEAN_MOTION_DOT":-1.35e-6,"MEAN_MOTION_DDOT":0},{"OBJECT_NAME":"ONEWEB-0579","OBJECT_ID":"2023-043Y","EPOCH":"2026-01-27T05:20:13.136928","MEAN_MOTION":13.21826868,"ECCENTRICITY":0.00013061,"INCLINATION":87.9203,"RA_OF_ASC_NODE":272.0828,"ARG_OF_PERICENTER":73.6893,"MEAN_ANOMALY":286.4384,"EPHEMERIS_TYPE":0,"CLASSIFICATION_TYPE":"U","NORAD_CAT_ID":56068,"ELEMENT_SET_NO":999,"REV_AT_EPOCH":13962,"BSTAR":0.00014954572,"MEAN_MOTION_DOT":7.5e-7,"MEAN_MOTION_DDOT":0}]
